COSMOS 1743             
1 16719U 86034A   25300.25347271  .00029269  00000+0  53909-3 0  9992
2 16719  82.5385 212.7480 0009405  65.5354 294.6876 15.48961193159539
SL-14 R/B               
1 16792U 86046B   25300.23519824  .00000794  00000+0  89130-4 0  9997
2 16792  82.4845 206.2241 0022055 312.0607  47.8732 14.85415453106590
SL-14 R/B               
1 16882U 86055B   25300.31903248  .00000964  00000+0  10869-3 0  9994
2 16882  82.5196 251.9866 0020420  56.1537  95.1854 14.85451921 99561
AJISAI (EGS)            
1 16908U 86061A   25300.34825035 -.00000096  00000+0  11268-4 0  9992
2 16908  50.0073 143.3694 0011137 308.5442 222.4358 12.44513989451394
COSMOS 1812             
1 17295U 87003A   25300.16031729  .00059675  00000+0  56440-3 0  9994
2 17295  82.4905 342.0814 0002905 193.8739 166.2442 15.66751537123346
SL-14 R/B               
1 17567U 87024B   25300.24968564  .00000890  00000+0  99045-4 0  9998
2 17567  82.5303 218.1171 0018017 347.8735  12.2045 14.85953216 68310
COSMOS 1833             
1 17589U 87027A   25300.20797659 -.00000289  00000+0 -12896-3 0  9998
2 17589  70.9166 246.5905 0020345  38.1308 322.1247 14.13027475991452
SL-16 R/B               
1 17590U 87027B   25300.14552742 -.00000162  00000+0 -56809-4 0  9998
2 17590  71.0031 197.8983 0006744 308.5578  51.4941 14.17142376996462
SL-14 R/B               
1 17912U 87038B   25300.31079975  .00000909  00000+0  10316-3 0  9998
2 17912  82.5017  62.4196 0018019 243.6100 116.3266 14.85187543 59430
COSMOS 1844             
1 17973U 87041A   25300.24286140  .00000156  00000+0  10600-3 0  9995
2 17973  70.8979 315.6428 0032641 225.7911 134.0529 14.14506592984711
SL-14 R/B               
1 18153U 87055B   25300.24350207  .00000797  00000+0  89230-4 0  9994
2 18153  82.4962 114.8082 0022194  94.4165 265.9587 14.85445864 50121
COSMOS 1867             
1 18187U 87060A   25300.21406247  .00000008  00000+0  40600-4 0  9993
2 18187  65.0109 320.4936 0013801 266.5379  93.4126 14.31474416   837
