CCSDS_OMM_VERS = 2.0
CREATION_DATE  = 
ORIGINATOR     = 

OBJECT_NAME    = COSMOS 1743
OBJECT_ID      = 1986-034A
CENTER_NAME    = EARTH
REF_FRAME      = TEME
TIME_SYSTEM    = UTC
MEAN_ELEMENT_THEORY = SGP/SGP4

EPOCH          = 2025-10-27T06:05:00.042144
MEAN_MOTION    = 15.48961193
ECCENTRICITY   = .00094056
INCLINATION    = 82.5385
RA_OF_ASC_NODE = 212.7480
ARG_OF_PERICENTER = 65.5354
MEAN_ANOMALY   = 294.6876

EPHEMERIS_TYPE = 0
CLASSIFICATION_TYPE = U
NORAD_CAT_ID   = 16719
ELEMENT_SET_NO = 999
REV_AT_EPOCH   = 15953
BSTAR          = .539095E-3
MEAN_MOTION_DOT = .29269E-3
MEAN_MOTION_DDOT = 0

CCSDS_OMM_VERS = 2.0
CREATION_DATE  = 
ORIGINATOR     = 

OBJECT_NAME    = SL-14 R/B
OBJECT_ID      = 1986-046B
CENTER_NAME    = EARTH
REF_FRAME      = TEME
TIME_SYSTEM    = UTC
MEAN_ELEMENT_THEORY = SGP/SGP4

EPOCH          = 2025-10-27T05:38:41.127936
MEAN_MOTION    = 14.85415453
ECCENTRICITY   = .00220554
INCLINATION    = 82.4845
RA_OF_ASC_NODE = 206.2241
ARG_OF_PERICENTER = 312.0607
MEAN_ANOMALY   = 47.8732

EPHEMERIS_TYPE = 0
CLASSIFICATION_TYPE = U
NORAD_CAT_ID   = 16792
ELEMENT_SET_NO = 999
REV_AT_EPOCH   = 10659
BSTAR          = .89129973E-4
MEAN_MOTION_DOT = .794E-5
MEAN_MOTION_DDOT = 0

CCSDS_OMM_VERS = 2.0
CREATION_DATE  = 
ORIGINATOR     = 

OBJECT_NAME    = SL-14 R/B
OBJECT_ID      = 1986-055B
CENTER_NAME    = EARTH
REF_FRAME      = TEME
TIME_SYSTEM    = UTC
MEAN_ELEMENT_THEORY = SGP/SGP4

EPOCH          = 2025-10-27T07:39:24.406272
MEAN_MOTION    = 14.85451921
ECCENTRICITY   = .00204201
INCLINATION    = 82.5196
RA_OF_ASC_NODE = 251.9866
ARG_OF_PERICENTER = 56.1537
MEAN_ANOMALY   = 95.1854

EPHEMERIS_TYPE = 0
CLASSIFICATION_TYPE = U
NORAD_CAT_ID   = 16882
ELEMENT_SET_NO = 999
REV_AT_EPOCH   = 9956
BSTAR          = .10869486E-3
MEAN_MOTION_DOT = .964E-5
MEAN_MOTION_DDOT = 0

CCSDS_OMM_VERS = 2.0
CREATION_DATE  = 
ORIGINATOR     = 

OBJECT_NAME    = AJISAI (EGS)
OBJECT_ID      = 1986-061A
CENTER_NAME    = EARTH
REF_FRAME      = TEME
TIME_SYSTEM    = UTC
MEAN_ELEMENT_THEORY = SGP/SGP4

EPOCH          = 2025-10-27T08:21:28.830240
MEAN_MOTION    = 12.44513989
ECCENTRICITY   = .00111371
INCLINATION    = 50.0073
RA_OF_ASC_NODE = 143.3694
ARG_OF_PERICENTER = 308.5442
MEAN_ANOMALY   = 222.4358

EPHEMERIS_TYPE = 0
CLASSIFICATION_TYPE = U
NORAD_CAT_ID   = 16908
ELEMENT_SET_NO = 999
REV_AT_EPOCH   = 45139
BSTAR          = .11268036E-4
MEAN_MOTION_DOT = -.96E-6
MEAN_MOTION_DDOT = 0

CCSDS_OMM_VERS = 2.0
CREATION_DATE  = 
ORIGINATOR     = 

OBJECT_NAME    = COSMOS 1812
OBJECT_ID      = 1987-003A
CENTER_NAME    = EARTH
REF_FRAME      = TEME
TIME_SYSTEM    = UTC
MEAN_ELEMENT_THEORY = SGP/SGP4

EPOCH          = 2025-10-27T03:50:51.413856
MEAN_MOTION    = 15.66751537
ECCENTRICITY   = .00029054
INCLINATION    = 82.4905
RA_OF_ASC_NODE = 342.0814
ARG_OF_PERICENTER = 193.8739
MEAN_ANOMALY   = 166.2442

EPHEMERIS_TYPE = 0
CLASSIFICATION_TYPE = U
NORAD_CAT_ID   = 17295
ELEMENT_SET_NO = 999
REV_AT_EPOCH   = 12334
BSTAR          = .56439899E-3
MEAN_MOTION_DOT = .59675E-3
MEAN_MOTION_DDOT = 0

CCSDS_OMM_VERS = 2.0
CREATION_DATE  = 
ORIGINATOR     = 

OBJECT_NAME    = SL-14 R/B
OBJECT_ID      = 1987-024B
CENTER_NAME    = EARTH
REF_FRAME      = TEME
TIME_SYSTEM    = UTC
MEAN_ELEMENT_THEORY = SGP/SGP4

EPOCH          = 2025-10-27T05:59:32.839296
MEAN_MOTION    = 14.85953216
ECCENTRICITY   = .00180174
INCLINATION    = 82.5303
RA_OF_ASC_NODE = 218.1171
ARG_OF_PERICENTER = 347.8735
MEAN_ANOMALY   = 12.2045

EPHEMERIS_TYPE = 0
CLASSIFICATION_TYPE = U
NORAD_CAT_ID   = 17567
ELEMENT_SET_NO = 999
REV_AT_EPOCH   = 6831
BSTAR          = .99045083E-4
MEAN_MOTION_DOT = .89E-5
MEAN_MOTION_DDOT = 0

CCSDS_OMM_VERS = 2.0
CREATION_DATE  = 
ORIGINATOR     = 

OBJECT_NAME    = COSMOS 1833
OBJECT_ID      = 1987-027A
CENTER_NAME    = EARTH
REF_FRAME      = TEME
TIME_SYSTEM    = UTC
MEAN_ELEMENT_THEORY = SGP/SGP4

EPOCH          = 2025-10-27T04:59:29.177376
MEAN_MOTION    = 14.13027475
ECCENTRICITY   = .0020345
INCLINATION    = 70.9166
RA_OF_ASC_NODE = 246.5905
ARG_OF_PERICENTER = 38.1308
MEAN_ANOMALY   = 322.1247

EPHEMERIS_TYPE = 0
CLASSIFICATION_TYPE = U
NORAD_CAT_ID   = 17589
ELEMENT_SET_NO = 999
REV_AT_EPOCH   = 99145
BSTAR          = -.12895785E-3
MEAN_MOTION_DOT = -.289E-5
MEAN_MOTION_DDOT = 0

CCSDS_OMM_VERS = 2.0
CREATION_DATE  = 
ORIGINATOR     = 

OBJECT_NAME    = SL-16 R/B
OBJECT_ID      = 1987-027B
CENTER_NAME    = EARTH
REF_FRAME      = TEME
TIME_SYSTEM    = UTC
MEAN_ELEMENT_THEORY = SGP/SGP4

EPOCH          = 2025-10-27T03:29:33.569088
MEAN_MOTION    = 14.17142376
ECCENTRICITY   = .00067449
INCLINATION    = 71.0031
RA_OF_ASC_NODE = 197.8983
ARG_OF_PERICENTER = 308.5578
MEAN_ANOMALY   = 51.4941

EPHEMERIS_TYPE = 0
CLASSIFICATION_TYPE = U
NORAD_CAT_ID   = 17590
ELEMENT_SET_NO = 999
REV_AT_EPOCH   = 99646
BSTAR          = -.56808875E-4
MEAN_MOTION_DOT = -.162E-5
MEAN_MOTION_DDOT = 0

CCSDS_OMM_VERS = 2.0
CREATION_DATE  = 
ORIGINATOR     = 

OBJECT_NAME    = SL-14 R/B
OBJECT_ID      = 1987-038B
CENTER_NAME    = EARTH
REF_FRAME      = TEME
TIME_SYSTEM    = UTC
MEAN_ELEMENT_THEORY = SGP/SGP4

EPOCH          = 2025-10-27T07:27:33.098400
MEAN_MOTION    = 14.85187543
ECCENTRICITY   = .00180199
INCLINATION    = 82.5017
RA_OF_ASC_NODE = 62.4196
ARG_OF_PERICENTER = 243.6100
MEAN_ANOMALY   = 116.3266

EPHEMERIS_TYPE = 0
CLASSIFICATION_TYPE = U
NORAD_CAT_ID   = 17912
ELEMENT_SET_NO = 999
REV_AT_EPOCH   = 5943
BSTAR          = .10315741E-3
MEAN_MOTION_DOT = .909E-5
MEAN_MOTION_DDOT = 0

CCSDS_OMM_VERS = 2.0
CREATION_DATE  = 
ORIGINATOR     = 

OBJECT_NAME    = COSMOS 1844
OBJECT_ID      = 1987-041A
CENTER_NAME    = EARTH
REF_FRAME      = TEME
TIME_SYSTEM    = UTC
MEAN_ELEMENT_THEORY = SGP/SGP4

EPOCH          = 2025-10-27T05:49:43.224960
MEAN_MOTION    = 14.14506592
ECCENTRICITY   = .00326416
INCLINATION    = 70.8979
RA_OF_ASC_NODE = 315.6428
ARG_OF_PERICENTER = 225.7911
MEAN_ANOMALY   = 134.0529

EPHEMERIS_TYPE = 0
CLASSIFICATION_TYPE = U
NORAD_CAT_ID   = 17973
ELEMENT_SET_NO = 999
REV_AT_EPOCH   = 98471
BSTAR          = .10599739E-3
MEAN_MOTION_DOT = .156E-5
MEAN_MOTION_DDOT = 0

CCSDS_OMM_VERS = 2.0
CREATION_DATE  = 
ORIGINATOR     = 

OBJECT_NAME    = SL-14 R/B
OBJECT_ID      = 1987-055B
CENTER_NAME    = EARTH
REF_FRAME      = TEME
TIME_SYSTEM    = UTC
MEAN_ELEMENT_THEORY = SGP/SGP4

EPOCH          = 2025-10-27T05:50:38.578848
MEAN_MOTION    = 14.85445864
ECCENTRICITY   = .00221941
INCLINATION    = 82.4962
RA_OF_ASC_NODE = 114.8082
ARG_OF_PERICENTER = 94.4165
MEAN_ANOMALY   = 265.9587

EPHEMERIS_TYPE = 0
CLASSIFICATION_TYPE = U
NORAD_CAT_ID   = 18153
ELEMENT_SET_NO = 999
REV_AT_EPOCH   = 5012
BSTAR          = .89229834E-4
MEAN_MOTION_DOT = .797E-5
MEAN_MOTION_DDOT = 0

CCSDS_OMM_VERS = 2.0
CREATION_DATE  = 
ORIGINATOR     = 

OBJECT_NAME    = COSMOS 1867
OBJECT_ID      = 1987-060A
CENTER_NAME    = EARTH
REF_FRAME      = TEME
TIME_SYSTEM    = UTC
MEAN_ELEMENT_THEORY = SGP/SGP4

EPOCH          = 2025-10-27T05:08:14.997408
MEAN_MOTION    = 14.31474416
ECCENTRICITY   = .00138011
INCLINATION    = 65.0109
RA_OF_ASC_NODE = 320.4936
ARG_OF_PERICENTER = 266.5379
MEAN_ANOMALY   = 93.4126

EPHEMERIS_TYPE = 0
CLASSIFICATION_TYPE = U
NORAD_CAT_ID   = 18187
ELEMENT_SET_NO = 999
REV_AT_EPOCH   = 83
BSTAR          = .40600034E-4
MEAN_MOTION_DOT = .8E-7
MEAN_MOTION_DDOT = 0

